2024-205L               
1 61904U 24205L   26066.14074752  .00013606  00000+0  79283-3 0  9990
2 61904  97.4213 140.2188 0054772 346.2042  13.7688 15.10822925 72825
SUPERVIEW NEO-2 04      
1 62080U 24218C   26068.56191197  .00004175  00000+0  19862-3 0  9999
2 62080  97.4396  77.3157 0001369 109.3587 250.7796 15.19718850 71311
